ORBCOMM FM103           
1 40091U 14040F   25124.67560409  .00001047  00000+0  26170-3 0  9994
2 40091  47.0051 223.2829 0000870  86.0584 274.0401 14.58108452557752
ORBCOMM FM114           
1 41179U 15081A   25125.17805837  .00001210  00000+0  29648-3 0  9996
2 41179  47.0010 129.9798 0001684 179.5557 180.5330 14.58144567498241
ORBCOMM FM119           
1 41180U 15081B   25124.82148522  .00001034  00000+0  25908-3 0  9999
2 41180  47.0019  40.9617 0001413 241.8950 118.1793 14.58079361499390
ORBCOMM FM105           
1 41181U 15081C   25124.80518609  .00000511  00000+0  18914-3 0  9993
2 41181  47.0028  41.7757 0001045 135.2035 224.8929 14.45187325494472
ORBCOMM FM110           
1 41182U 15081D   25125.15648506  .00001179  00000+0  29048-3 0  9994
2 41182  47.0004 129.4772 0002751 313.2599  46.8057 14.58031494498248
ORBCOMM FM118           
1 41183U 15081E   25125.14034298  .00000676  00000+0  18249-3 0  9993
2 41183  47.0026 130.0056 0003213 305.6382  54.4204 14.57976619498240
ORBCOMM FM112           
1 41184U 15081F   25124.79811909  .00001381  00000+0  33363-3 0  9994
2 41184  47.0005  40.2321 0000770 191.7588 168.3279 14.58099294499336
ORBCOMM FM113           
1 41185U 15081G   25124.77490915  .00001232  00000+0  30144-3 0  9992
2 41185  47.0012  40.6593 0001031 215.7207 144.3610 14.58094384499312
